{
  "links" : {
    "next" : "https://api.nasa.gov/neo/rest/v1/neo/browse?page=7&size=20&api_key=jqAGvNAwUIBu4fl9FSOjdm3V4F7hIglRzI6pdX9d",
    "prev" : "https://api.nasa.gov/neo/rest/v1/neo/browse?page=5&size=20&api_key=jqAGvNAwUIBu4fl9FSOjdm3V4F7hIglRzI6pdX9d",
    "self" : "https://api.nasa.gov/neo/rest/v1/neo/browse?page=6&size=20&api_key=jqAGvNAwUIBu4fl9FSOjdm3V4F7hIglRzI6pdX9d"
  },
  "page" : {
    "size" : 20,
    "total_elements" : 20750,
    "total_pages" : 1038,
    "number" : 6
  },
  "near_earth_objects" : [ {
    "links" : {
      "self" : "https://api.nasa.gov/neo/rest/v1/neo/3092289?api_key=jqAGvNAwUIBu4fl9FSOjdm3V4F7hIglRzI6pdX9d"
    },
    "neo_reference_id" : "3092289",
    "name" : "(2001 CA21)",
    "designation" : "2001 CA21",
    "nasa_jpl_url" : "http://ssd.jpl.nasa.gov/sbdb.cgi?sstr=3092289",
    "absolute_magnitude_h" : 18.775,
    "estimated_diameter" : {
      "kilometers" : {
        "estimated_diameter_min" : 0.4672560966,
        "estimated_diameter_max" : 1.0448163949
      },
      "meters" : {
        "estimated_diameter_min" : 467.2560965902,
        "estimated_diameter_max" : 1044.8163948769
      },
      "miles" : {
        "estimated_diameter_min" : 0.290339388,
        "estimated_diameter_max" : 0.6492186081
      },
      "feet" : {
        "estimated_diameter_min" : 1532.9924919371,
        "estimated_diameter_max" : 3427.8754209681
      }
    },
    "is_potentially_hazardous_asteroid" : true,
    "close_approach_data" : [ {
      "close_approach_date" : "2001-02-12",
      "epoch_date_close_approach" : 981964800000,
      "relative_velocity" : {
        "kilometers_per_second" : "31.2933769069",
        "kilometers_per_hour" : "112656.1568649527",
        "miles_per_hour" : "70000.1548031146"
      },
      "miss_distance" : {
        "astronomical" : "0.1718670467",
        "lunar" : "66.8562774658",
        "kilometers" : "25710944",
        "miles" : "15976040"
      },
      "orbiting_body" : "Earth"
    } ],
    "orbital_data" : {
      "orbit_id" : "12",
      "orbit_determination_date" : "2017-04-06 09:16:32",
      "first_observation_date" : "2001-02-02",
      "last_observation_date" : "2001-02-04",
      "data_arc_in_days" : 2,
      "observations_used" : 13,
      "orbit_uncertainty" : "9",
      "minimum_orbit_intersection" : ".0374655",
      "jupiter_tisserand_invariant" : "3.839",
      "epoch_osculation" : "2451943.5",
      "eccentricity" : ".7753789280052502",
      "semi_major_axis" : "1.663866162461334",
      "inclination" : "4.95654724000439",
      "ascending_node_longitude" : "46.64215596556536",
      "orbital_period" : "783.927701769413",
      "perihelion_distance" : ".3737394010678554",
      "perihelion_argument" : "218.6393108200826",
      "aphelion_distance" : "2.953992923854813",
      "perihelion_time" : "2451995.133950443981",
      "mean_anomaly" : "336.2883463387281",
      "mean_motion" : ".4592260219755463",
      "equinox" : "J2000",
      "orbit_class" : {
        "orbit_class_type" : "APO",
        "orbit_class_range" : "a (semi-major axis) > 1.0 AU; q (perihelion) < 1.017 AU",
        "orbit_class_description" : "Near-Earth asteroid orbits which cross the Earth’s orbit similar to that of 1862 Apollo"
      }
    },
    "is_sentry_object" : true,
    "sentry_data" : "https://api.nasa.gov/neo/rest/v1/neo/sentry/3092289?api_key=jqAGvNAwUIBu4fl9FSOjdm3V4F7hIglRzI6pdX9d"
  }, {
    "links" : {
      "self" : "https://api.nasa.gov/neo/rest/v1/neo/3076610?api_key=jqAGvNAwUIBu4fl9FSOjdm3V4F7hIglRzI6pdX9d"
    },
    "neo_reference_id" : "3076610",
    "name" : "(2001 DT8)",
    "designation" : "2001 DT8",
    "nasa_jpl_url" : "http://ssd.jpl.nasa.gov/sbdb.cgi?sstr=3076610",
    "absolute_magnitude_h" : 19.5,
    "estimated_diameter" : {
      "kilometers" : {
        "estimated_diameter_min" : 0.3346223745,
        "estimated_diameter_max" : 0.7482383761
      },
      "meters" : {
        "estimated_diameter_min" : 334.6223744549,
        "estimated_diameter_max" : 748.2383760735
      },
      "miles" : {
        "estimated_diameter_min" : 0.2079246394,
        "estimated_diameter_max" : 0.464933628
      },
      "feet" : {
        "estimated_diameter_min" : 1097.8424710066,
        "estimated_diameter_max" : 2454.8503937571
      }
    },
    "is_potentially_hazardous_asteroid" : false,
    "close_approach_data" : [ {
      "close_approach_date" : "2001-02-08",
      "epoch_date_close_approach" : 981619200000,
      "relative_velocity" : {
        "kilometers_per_second" : "26.22956571",
        "kilometers_per_hour" : "94426.4365560464",
        "miles_per_hour" : "58672.9155367279"
      },
      "miss_distance" : {
        "astronomical" : "0.2751240142",
        "lunar" : "107.0232391357",
        "kilometers" : "41157968",
        "miles" : "25574374"
      },
      "orbiting_body" : "Earth"
    } ],
    "orbital_data" : {
      "orbit_id" : "18",
      "orbit_determination_date" : "2017-04-06 09:16:31",
      "first_observation_date" : "2001-02-17",
      "last_observation_date" : "2001-04-19",
      "data_arc_in_days" : 61,
      "observations_used" : 30,
      "orbit_uncertainty" : "7",
      "minimum_orbit_intersection" : ".223508",
      "jupiter_tisserand_invariant" : "3.066",
      "epoch_osculation" : "2458600.5",
      "eccentricity" : ".467343614371673",
      "semi_major_axis" : "2.269193856150458",
      "inclination" : "48.53877283291555",
      "ascending_node_longitude" : "315.2968914158195",
      "orbital_period" : "1248.549673530685",
      "perihelion_distance" : "1.208700597707109",
      "perihelion_argument" : "182.3617451592095",
      "aphelion_distance" : "3.329687114593807",
      "perihelion_time" : "2458199.978459742884",
      "mean_anomaly" : "115.4841954223762",
      "mean_motion" : ".2883345433762212",
      "equinox" : "J2000",
      "orbit_class" : {
        "orbit_class_type" : "AMO",
        "orbit_class_range" : "1.017 AU < q (perihelion) < 1.3 AU",
        "orbit_class_description" : "Near-Earth asteroid orbits similar to that of 1221 Amor"
      }
    },
    "is_sentry_object" : false
  }, {
    "links" : {
      "self" : "https://api.nasa.gov/neo/rest/v1/neo/3092292?api_key=jqAGvNAwUIBu4fl9FSOjdm3V4F7hIglRzI6pdX9d"
    },
    "neo_reference_id" : "3092292",
    "name" : "(2001 FE7)",
    "designation" : "2001 FE7",
    "nasa_jpl_url" : "http://ssd.jpl.nasa.gov/sbdb.cgi?sstr=3092292",
    "absolute_magnitude_h" : 23.4,
    "estimated_diameter" : {
      "kilometers" : {
        "estimated_diameter_min" : 0.0555334912,
        "estimated_diameter_max" : 0.1241766613
      },
      "meters" : {
        "estimated_diameter_min" : 55.5334911581,
        "estimated_diameter_max" : 124.1766612574
      },
      "miles" : {
        "estimated_diameter_min" : 0.0345069009,
        "estimated_diameter_max" : 0.0771597762
      },
      "feet" : {
        "estimated_diameter_min" : 182.1964991311,
        "estimated_diameter_max" : 407.4037573197
      }
    },
    "is_potentially_hazardous_asteroid" : false,
    "close_approach_data" : [ {
      "close_approach_date" : "2001-03-24",
      "epoch_date_close_approach" : 985420800000,
      "relative_velocity" : {
        "kilometers_per_second" : "6.1795356519",
        "kilometers_per_hour" : "22246.3283468222",
        "miles_per_hour" : "13823.003299724"
      },
      "miss_distance" : {
        "astronomical" : "0.0779255332",
        "lunar" : "30.3130321503",
        "kilometers" : "11657494",
        "miles" : "7243631"
      },
      "orbiting_body" : "Earth"
    } ],
    "orbital_data" : {
      "orbit_id" : "13",
      "orbit_determination_date" : "2017-04-06 09:16:29",
      "first_observation_date" : "2001-03-19",
      "last_observation_date" : "2001-03-31",
      "data_arc_in_days" : 12,
      "observations_used" : 22,
      "orbit_uncertainty" : "9",
      "minimum_orbit_intersection" : ".0775177",
      "jupiter_tisserand_invariant" : "3.633",
      "epoch_osculation" : "2451989.5",
      "eccentricity" : ".4764899612797246",
      "semi_major_axis" : "2.05168620245568",
      "inclination" : "6.360352035498947",
      "ascending_node_longitude" : ".8015660054111244",
      "orbital_period" : "1073.408014624731",
      "perihelion_distance" : "1.074078323289428",
      "perihelion_argument" : "180.1101399855306",
      "aphelion_distance" : "3.029294081621933",
      "perihelion_time" : "2451990.655558455988",
      "mean_anomaly" : "359.6124483528278",
      "mean_motion" : ".3353803913285087",
      "equinox" : "J2000",
      "orbit_class" : {
        "orbit_class_type" : "AMO",
        "orbit_class_range" : "1.017 AU < q (perihelion) < 1.3 AU",
        "orbit_class_description" : "Near-Earth asteroid orbits similar to that of 1221 Amor"
      }
    },
    "is_sentry_object" : false
  } ]
}